[{"OBJECT_NAME":"OBJECT B","OBJECT_ID":"2024-153B","EPOCH":"2026-03-09T23:15:18.632160","MEAN_MOTION":15.30512917,"ECCENTRICITY":0.00113423,"INCLINATION":97.6622,"RA_OF_ASC_NODE":204.9195,"ARG_OF_PERICENTER":149.8438,"MEAN_ANOMALY":210.3457,"EPHEMERIS_TYPE":0,"CLASSIFICATION_TYPE":"U","NORAD_CAT_ID":60746,"ELEMENT_SET_NO":999,"REV_AT_EPOCH":8476,"BSTAR":0.00066193599,"MEAN_MOTION_DOT":0.00019515,"MEAN_MOTION_DDOT":0},{"OBJECT_NAME":"STARLINK-34466","OBJECT_ID":"2025-244W","EPOCH":"2026-03-09T17:07:08.248224","MEAN_MOTION":15.30205375,"ECCENTRICITY":0.00010687,"INCLINATION":53.1596,"RA_OF_ASC_NODE":229.7611,"ARG_OF_PERICENTER":89.8415,"MEAN_ANOMALY":270.2708,"EPHEMERIS_TYPE":0,"CLASSIFICATION_TYPE":"U","NORAD_CAT_ID":66226,"ELEMENT_SET_NO":999,"REV_AT_EPOCH":2166,"BSTAR":0.00055805774,"MEAN_MOTION_DOT":0.00016208,"MEAN_MOTION_DDOT":0}]
